<?xml version='1.0' encoding='UTF-8'?>
<kml xmlns="http://www.opengis.net/kml/2.2">
    <Document>
        <name>Etapa 16: Cortegana a La Rábida-Palos de la Frontera</name>
        <Style id="estiloSalidaMeta">
            <IconStyle>
                <color>ff0000ff</color>
                <scale>1.3</scale>
                <Icon>
                    <href>http://maps.google.com/mapfiles/kml/pushpin/wht-pushpin.png</href>
                </Icon>
            </IconStyle>
        </Style>
        <Style id="estiloPuerto">
            <IconStyle>
                <color>ff00ff00</color>
                <scale>1.1</scale>
                <Icon>
                    <href>http://maps.google.com/mapfiles/kml/pushpin/wht-pushpin.png</href>
                </Icon>
            </IconStyle>
        </Style>
        <Style id="estiloSprint">
            <IconStyle>
                <color>ffff0000</color>
                <scale>1.1</scale>
                <Icon>
                    <href>http://maps.google.com/mapfiles/kml/pushpin/wht-pushpin.png</href>
                </Icon>
            </IconStyle>
        </Style>
        <Style id="estiloAnonimo">
            <IconStyle>
                <color>ff00ffff</color>
                <scale>0.8</scale>
                <Icon>
                    <href>http://maps.google.com/mapfiles/kml/pushpin/wht-pushpin.png</href>
                </Icon>
            </IconStyle>
        </Style>
        <Style id="estiloRuta">
            <LineStyle>
                <color>ff0080ff</color>
                <width>4</width>
            </LineStyle>
        </Style>
        <Placemark>
            <name>Recorrido de la etapa</name>
            <styleUrl>#estiloRuta</styleUrl>
            <LineString>
                <extrude>1</extrude>
                <tessellate>1</tessellate>
                <altitudeMode>clampToGround</altitudeMode>
                <coordinates>-6.802658,37.888042,640
-6.786600,37.872200,613
-6.752000,37.885000,640
-6.745000,37.895000,650
-6.727000,37.912000,640
-6.701100,37.900600,740
-6.662000,37.905000,717
-6.645000,37.902000,700
-6.570000,37.890500,690
-6.585000,37.870000,620
-6.572000,37.769000,530
-6.586000,37.715000,470
-6.595000,37.693000,420
-6.601000,37.686000,400
-6.620000,37.660000,350
-6.615000,37.625000,330
-6.575000,37.570000,250
-6.562000,37.386000,90
-6.607600,37.389900,70
-6.670000,37.365000,40
-6.678000,37.342000,60
-6.685000,37.318000,90
-6.729000,37.305000,60
-6.740000,37.295000,60
-6.805000,37.285000,60
-6.839000,37.275000,50
-6.893000,37.229000,18
-6.875000,37.205000,25
-6.855000,37.180000,30
-6.830000,37.150000,20
-6.915000,37.203000,20
-6.922800,37.208900,25</coordinates>
            </LineString>
        </Placemark>
        <Placemark>
            <name>Salida: Cortegana</name>
            <description>Km 0.0 desde la salida. Altitud: 640 m</description>
            <styleUrl>#estiloSalidaMeta</styleUrl>
            <Point>
                <altitudeMode>clampToGround</altitudeMode>
                <coordinates>-6.802658,37.888042,640</coordinates>
            </Point>
        </Placemark>
        <Placemark>
            <name>Sprint: Villarrasa</name>
            <description>Km 114.5 desde la salida. Altitud: 70 m</description>
            <styleUrl>#estiloSprint</styleUrl>
            <Point>
                <altitudeMode>clampToGround</altitudeMode>
                <coordinates>-6.607600,37.389900,70</coordinates>
            </Point>
        </Placemark>
        <Placemark>
            <name>Almonaster la Real</name>
            <description>Km 2.0 desde la salida. Altitud: 613 m</description>
            <styleUrl>#estiloAnonimo</styleUrl>
            <Point>
                <altitudeMode>clampToGround</altitudeMode>
                <coordinates>-6.786600,37.872200,613</coordinates>
            </Point>
        </Placemark>
        <Placemark>
            <name>Cruce izquierda dirección Jabugo</name>
            <description>Km 9.1 desde la salida. Altitud: 640 m</description>
            <styleUrl>#estiloAnonimo</styleUrl>
            <Point>
                <altitudeMode>clampToGround</altitudeMode>
                <coordinates>-6.752000,37.885000,640</coordinates>
            </Point>
        </Placemark>
        <Placemark>
            <name>Aguafría</name>
            <description>Km 11.0 desde la salida. Altitud: 650 m</description>
            <styleUrl>#estiloAnonimo</styleUrl>
            <Point>
                <altitudeMode>clampToGround</altitudeMode>
                <coordinates>-6.745000,37.895000,650</coordinates>
            </Point>
        </Placemark>
        <Placemark>
            <name>Cruce derecha dirección Castaño del Robledo</name>
            <description>Km 14.6 desde la salida. Altitud: 640 m</description>
            <styleUrl>#estiloAnonimo</styleUrl>
            <Point>
                <altitudeMode>clampToGround</altitudeMode>
                <coordinates>-6.727000,37.912000,640</coordinates>
            </Point>
        </Placemark>
        <Placemark>
            <name>Castaño del Robledo</name>
            <description>Km 17.7 desde la salida. Altitud: 740 m</description>
            <styleUrl>#estiloAnonimo</styleUrl>
            <Point>
                <altitudeMode>clampToGround</altitudeMode>
                <coordinates>-6.701100,37.900600,740</coordinates>
            </Point>
        </Placemark>
        <Placemark>
            <name>Fuenteheridos</name>
            <description>Km 21.9 desde la salida. Altitud: 717 m</description>
            <styleUrl>#estiloAnonimo</styleUrl>
            <Point>
                <altitudeMode>clampToGround</altitudeMode>
                <coordinates>-6.662000,37.905000,717</coordinates>
            </Point>
        </Placemark>
        <Placemark>
            <name>Cruce derecha dirección Aracena</name>
            <description>Km 23.6 desde la salida. Altitud: 700 m</description>
            <styleUrl>#estiloAnonimo</styleUrl>
            <Point>
                <altitudeMode>clampToGround</altitudeMode>
                <coordinates>-6.645000,37.902000,700</coordinates>
            </Point>
        </Placemark>
        <Placemark>
            <name>Aracena, rotonda dirección Alájar</name>
            <description>Km 31.4 desde la salida. Altitud: 690 m</description>
            <styleUrl>#estiloAnonimo</styleUrl>
            <Point>
                <altitudeMode>clampToGround</altitudeMode>
                <coordinates>-6.570000,37.890500,690</coordinates>
            </Point>
        </Placemark>
        <Placemark>
            <name>Rotonda izquierda dirección Campofrío</name>
            <description>Km 34.8 desde la salida. Altitud: 620 m</description>
            <styleUrl>#estiloAnonimo</styleUrl>
            <Point>
                <altitudeMode>clampToGround</altitudeMode>
                <coordinates>-6.585000,37.870000,620</coordinates>
            </Point>
        </Placemark>
        <Placemark>
            <name>Campofrío</name>
            <description>Km 52.7 desde la salida. Altitud: 530 m</description>
            <styleUrl>#estiloAnonimo</styleUrl>
            <Point>
                <altitudeMode>clampToGround</altitudeMode>
                <coordinates>-6.572000,37.769000,530</coordinates>
            </Point>
        </Placemark>
        <Placemark>
            <name>La Dehesa</name>
            <description>Km 60.0 desde la salida. Altitud: 470 m</description>
            <styleUrl>#estiloAnonimo</styleUrl>
            <Point>
                <altitudeMode>clampToGround</altitudeMode>
                <coordinates>-6.586000,37.715000,470</coordinates>
            </Point>
        </Placemark>
        <Placemark>
            <name>Minas de Riotinto</name>
            <description>Km 63.1 desde la salida. Altitud: 420 m</description>
            <styleUrl>#estiloAnonimo</styleUrl>
            <Point>
                <altitudeMode>clampToGround</altitudeMode>
                <coordinates>-6.595000,37.693000,420</coordinates>
            </Point>
        </Placemark>
        <Placemark>
            <name>Cruce derecha dirección Las Delgadas</name>
            <description>Km 64.1 desde la salida. Altitud: 400 m</description>
            <styleUrl>#estiloAnonimo</styleUrl>
            <Point>
                <altitudeMode>clampToGround</altitudeMode>
                <coordinates>-6.601000,37.686000,400</coordinates>
            </Point>
        </Placemark>
        <Placemark>
            <name>Cruce derecha dirección Marigenta</name>
            <description>Km 67.9 desde la salida. Altitud: 350 m</description>
            <styleUrl>#estiloAnonimo</styleUrl>
            <Point>
                <altitudeMode>clampToGround</altitudeMode>
                <coordinates>-6.620000,37.660000,350</coordinates>
            </Point>
        </Placemark>
        <Placemark>
            <name>Cruce izquierda dirección Berrocal</name>
            <description>Km 74.0 desde la salida. Altitud: 330 m</description>
            <styleUrl>#estiloAnonimo</styleUrl>
            <Point>
                <altitudeMode>clampToGround</altitudeMode>
                <coordinates>-6.615000,37.625000,330</coordinates>
            </Point>
        </Placemark>
        <Placemark>
            <name>Cruce derecha dirección La Palma del Condado</name>
            <description>Km 81.5 desde la salida. Altitud: 250 m</description>
            <styleUrl>#estiloAnonimo</styleUrl>
            <Point>
                <altitudeMode>clampToGround</altitudeMode>
                <coordinates>-6.575000,37.570000,250</coordinates>
            </Point>
        </Placemark>
        <Placemark>
            <name>La Palma del Condado</name>
            <description>Km 111.0 desde la salida. Altitud: 90 m</description>
            <styleUrl>#estiloAnonimo</styleUrl>
            <Point>
                <altitudeMode>clampToGround</altitudeMode>
                <coordinates>-6.562000,37.386000,90</coordinates>
            </Point>
        </Placemark>
        <Placemark>
            <name>Rotonda izquierda dirección Bonares</name>
            <description>Km 121.6 desde la salida. Altitud: 40 m</description>
            <styleUrl>#estiloAnonimo</styleUrl>
            <Point>
                <altitudeMode>clampToGround</altitudeMode>
                <coordinates>-6.670000,37.365000,40</coordinates>
            </Point>
        </Placemark>
        <Placemark>
            <name>Cruce recto dirección Bonares</name>
            <description>Km 124.5 desde la salida. Altitud: 60 m</description>
            <styleUrl>#estiloAnonimo</styleUrl>
            <Point>
                <altitudeMode>clampToGround</altitudeMode>
                <coordinates>-6.678000,37.342000,60</coordinates>
            </Point>
        </Placemark>
        <Placemark>
            <name>Cruce derecha dirección Lucena del Puerto</name>
            <description>Km 128.8 desde la salida. Altitud: 90 m</description>
            <styleUrl>#estiloAnonimo</styleUrl>
            <Point>
                <altitudeMode>clampToGround</altitudeMode>
                <coordinates>-6.685000,37.318000,90</coordinates>
            </Point>
        </Placemark>
        <Placemark>
            <name>Lucena del Puerto</name>
            <description>Km 136.0 desde la salida. Altitud: 60 m</description>
            <styleUrl>#estiloAnonimo</styleUrl>
            <Point>
                <altitudeMode>clampToGround</altitudeMode>
                <coordinates>-6.729000,37.305000,60</coordinates>
            </Point>
        </Placemark>
        <Placemark>
            <name>Incorporación A-486</name>
            <description>Km 137.7 desde la salida. Altitud: 60 m</description>
            <styleUrl>#estiloAnonimo</styleUrl>
            <Point>
                <altitudeMode>clampToGround</altitudeMode>
                <coordinates>-6.740000,37.295000,60</coordinates>
            </Point>
        </Placemark>
        <Placemark>
            <name>Cruce izquierda dirección Moguer</name>
            <description>Km 144.7 desde la salida. Altitud: 60 m</description>
            <styleUrl>#estiloAnonimo</styleUrl>
            <Point>
                <altitudeMode>clampToGround</altitudeMode>
                <coordinates>-6.805000,37.285000,60</coordinates>
            </Point>
        </Placemark>
        <Placemark>
            <name>Moguer</name>
            <description>Km 147.2 desde la salida. Altitud: 50 m</description>
            <styleUrl>#estiloAnonimo</styleUrl>
            <Point>
                <altitudeMode>clampToGround</altitudeMode>
                <coordinates>-6.839000,37.275000,50</coordinates>
            </Point>
        </Placemark>
        <Placemark>
            <name>Palos de la Frontera</name>
            <description>Km 155.4 desde la salida. Altitud: 18 m</description>
            <styleUrl>#estiloAnonimo</styleUrl>
            <Point>
                <altitudeMode>clampToGround</altitudeMode>
                <coordinates>-6.893000,37.229000,18</coordinates>
            </Point>
        </Placemark>
        <Placemark>
            <name>Rotonda derecha dirección Mazagón</name>
            <description>Km 158.3 desde la salida. Altitud: 25 m</description>
            <styleUrl>#estiloAnonimo</styleUrl>
            <Point>
                <altitudeMode>clampToGround</altitudeMode>
                <coordinates>-6.875000,37.205000,25</coordinates>
            </Point>
        </Placemark>
        <Placemark>
            <name>Incorporación A-494</name>
            <description>Km 162.1 desde la salida. Altitud: 30 m</description>
            <styleUrl>#estiloAnonimo</styleUrl>
            <Point>
                <altitudeMode>clampToGround</altitudeMode>
                <coordinates>-6.855000,37.180000,30</coordinates>
            </Point>
        </Placemark>
        <Placemark>
            <name>Rotonda derecha dirección Huelva</name>
            <description>Km 169.2 desde la salida. Altitud: 20 m</description>
            <styleUrl>#estiloAnonimo</styleUrl>
            <Point>
                <altitudeMode>clampToGround</altitudeMode>
                <coordinates>-6.830000,37.150000,20</coordinates>
            </Point>
        </Placemark>
        <Placemark>
            <name>Rotonda derecha dirección Palos de la Frontera</name>
            <description>Km 180.0 desde la salida. Altitud: 20 m</description>
            <styleUrl>#estiloAnonimo</styleUrl>
            <Point>
                <altitudeMode>clampToGround</altitudeMode>
                <coordinates>-6.915000,37.203000,20</coordinates>
            </Point>
        </Placemark>
        <Placemark>
            <name>Meta: La Rábida. Palos de la Frontera</name>
            <description>Km 181.1 desde la salida. Altitud: 25 m</description>
            <styleUrl>#estiloSalidaMeta</styleUrl>
            <Point>
                <altitudeMode>clampToGround</altitudeMode>
                <coordinates>-6.922800,37.208900,25</coordinates>
            </Point>
        </Placemark>
    </Document>
</kml>